BEESAT-1                
1 35933U 09051C   26139.56423595  .00000506  00000+0  11149-3 0  9997
2 35933  98.3983  46.6478 0004570 330.6866  29.4077 14.61667665885006
ITUPSAT1                
1 35935U 09051E   26139.18753492  .00000454  00000+0  10393-3 0  9991
2 35935  98.4068  45.4878 0006997 339.3599  20.7317 14.60391532884509
XIWANG-1 (HOPE-1)       
1 36122U 09072B   26139.82021140  .00000067  00000+0  29076-3 0  9990
2 36122 100.4018  94.1084 0006967 302.4856  57.5583 13.16439245789276
O/OREOS (USA 219)       
1 37224U 10062C   26139.73274933  .00001157  00000+0  11541-3 0  9994
2 37224  71.9679 144.7862 0012718 125.4259 234.8101 14.93608650112395
JUGNU                   
1 37839U 11058B   26139.65953437  .00000356  00000+0  46602-4 0  9993
2 37839  19.9595 121.7370 0018758 121.2120  34.3584 14.13767470754989
SRMSAT                  
1 37841U 11058D   26139.58544160  .00000360  00000+0  51297-4 0  9998
2 37841  19.9713 232.5941 0011591 249.6161 142.4363 14.11568884753775
STRAND-1                
1 39090U 13009E   26139.71977785  .00000147  00000+0  63848-4 0  9990
2 39090  98.3916 320.6562 0007801 322.9996  37.0652 14.37144504692978
ZACUBE-1 (TSHEPISOSAT)  
1 39417U 13066B   26139.87676981  .00003044  00000+0  23957-3 0  9992
2 39417  97.8123 102.0604 0040994 347.8818  12.1416 15.00948884676487
GOMX-1                  
1 39430U 13066Q   26139.78955978  .00001183  00000+0  18391-3 0  9991
2 39430  97.6496 342.0436 0129033 168.0442 192.3879 14.69333977665746
CUBEBUG-2 (LO-74)       
1 39440U 13066AA  26139.59162167  .00002255  00000+0  21261-3 0  9992
2 39440  97.8895  88.4584 0059292 121.3860 239.3178 14.93514845672724
FUNCUBE-1 (AO-73)       
1 39444U 13066AE  26139.88001220  .00005392  00000+0  33982-3 0  9998
2 39444  97.8266 110.7464 0034852 301.7800  58.0035 15.09086227675399
UWE-3                   
1 39446U 13066AG  26139.87297777  .00002931  00000+0  25518-3 0  9995
2 39446  97.8681  95.7656 0050416  55.1859 305.4090 14.96754231673340
UNISAT-6                
1 40012U 14033C   26139.69129487  .00001889  00000+0  20766-3 0  9994
2 40012  97.7847 292.9146 0045739 160.8316 199.4635 14.88059250641928
DUCHIFAT-1              
1 40021U 14033M   26139.12335227  .00061236  00000+0  78320-3 0  9994
2 40021  98.0491 194.3373 0006206 171.2568 188.8795 15.59011194651211
QB50P1                  
1 40025U 14033R   26139.47629546  .00005185  00000+0  26032-3 0  9990
2 40025  98.0974 148.6201 0007692 335.1999  24.8862 15.17769018648671
LILACSAT-2              
1 40908U 15049K   26139.81922402  .00013324  00000+0  23568-3 0  9998
2 40908  97.4675 175.5996 0006833  14.3695 345.7749 15.50422316591352
FOX-1A (AO-85)          
1 40967U 15058D   26139.64296985  .00002040  00000+0  19196-3 0  9999
2 40967  64.7763   7.6792 0129243  67.7972 293.6792 14.90785766109316
CAS-2T & KS-1Q          
1 41847U 16066G   26139.49602104  .00000670  00000+0  10371-3 0  9997
2 41847  98.3827 215.5577 0341384 216.4556 141.2952 14.44599488500653
RADFXSAT (FOX-1B)       
1 43017U 17073E   26139.89194132  .00007348  00000+0  32221-3 0  9995
2 43017  97.4738   7.6935 0153801  66.6401 295.0925 15.12149906461119
DIWATA-2B               
1 43678U 18084H   26139.82617252  .00001825  00000+0  15073-3 0  9997
2 43678  98.1109 334.8151 0011674 268.1677  91.8208 15.00300259411963
ES'HAIL 2               
1 43700U 18090A   26139.84697727  .00000141  00000+0  00000+0 0  9997
2 43700   0.0147 341.8569 0001314 107.0377 119.3250  1.00270116 27398
FOX-1CLIFF (AO-95)      
1 43770U 18099N   26139.62600602  .00007779  00000+0  30464-3 0  9990
2 43770  97.4397 199.9897 0010469  91.7701 268.4736 15.26026101408865
ITASAT                  
1 43786U 18099AE  26139.69280576  .00004794  00000+0  23411-3 0  9996
2 43786  97.4045 191.7785 0014402  93.3195 266.9687 15.18646677408588
JY1SAT (JO-97)          
1 43803U 18099AX  26139.11698420  .00011732  00000+0  37434-3 0  9994
2 43803  97.4142 201.8701 0005751  31.4913 328.6673 15.32643998409171
UWE-4                   
1 43880U 18111E   26139.52633225  .00023571  00000+0  51373-3 0  9993
2 43880  97.5863  66.6400 0010413  74.5127 285.7270 15.44204808406355
TIANYAN 01              
1 44881U 19093C   26139.84024314  .00001072  00000+0  12714-3 0  9991
2 44881  97.7538 212.7629 0013613 173.5989 186.5404 14.86469428347207
RS-44 & BREEZE-KM R/B   
1 44909U 19096E   26139.85978775  .00000018  00000+0  31578-4 0  9994
2 44909  82.5232 358.5322 0216899 210.3799 148.4586 12.79748339298721
SALSAT                  
1 46495U 20068K   26139.81893080  .00005756  00000+0  20490-3 0  9992
2 46495  97.8857 141.1678 0011089  50.2482 309.9732 15.29337750311024
XW-3 (CAS-9)            
1 50466U 21131B   26139.87012623  .00000336  00000+0  11754-3 0  9991
2 50466  98.4970 232.4150 0004324 166.4332 193.6973 14.41327210231037
GREENCUBE (IO-117)      
1 53109U 22080E   26139.39156273 -.00000003  00000+0  00000+0 0  9999
2 53109  70.1431 308.2634 0008840 296.5004  63.4749  6.42583330 90217
UMKA 1 (RS40S)          
1 57172U 23091G   26139.86401106  .00003899  00000+0  18157-3 0  9997
2 57172  97.5063 198.6751 0012061 211.7355 148.3154 15.20455239159709
CUBESX-HSE 3 (RS42S)    
1 57178U 23091N   26139.80472149  .00009787  00000+0  33467-3 0  9995
2 57178  97.5101 205.0484 0011082 184.5112 175.6030 15.30418693160087
MONITOR-3 (RS58S)       
1 57180U 23091Q   26139.83358201  .00007359  00000+0  27825-3 0  9997
2 57180  97.5093 203.0828 0011711 191.8832 168.2132 15.27206826159964
MONITOR-4 (RS57S)       
1 57182U 23091S   26139.81439170  .00007557  00000+0  28483-3 0  9993
2 57182  97.5087 203.0330 0011671 192.2720 167.8237 15.27303827159963
MONITOR-2 (RS39S)       
1 57184U 23091U   26139.85036565  .00003238  00000+0  15960-3 0  9998
2 57184  97.5088 198.3197 0010642 203.2763 156.7990 15.18615628159654
SVYATOBOR 1 (RS60S)     
1 57187U 23091X   26139.80384672  .00006308  00000+0  24738-3 0  9995
2 57187  97.5100 203.4732 0009629 182.6011 177.5178 15.26075403159989
VIZARD-METEO (RS38S)    
1 57189U 23091Z   26139.86546924  .00012974  00000+0  38355-3 0  9999
2 57189  97.5098 208.8028 0008325 162.4868 197.6664 15.35030961160347
POLYTECH-UNIVERSE 3 (R*)
1 57191U 23091AB  26139.81539044  .00003262  00000+0  15969-3 0  9998
2 57191  97.5062 197.7899 0014525 223.3399 136.6694 15.18813451159649
UTMN 2 (RS27S)          
1 57203U 23091AP  26139.83805319  .00009383  00000+0  31278-3 0  9996
2 57203  97.5095 206.6810 0008734 169.3845 190.7582 15.31280287160203
KUZGTU 1 (RS47S)        
1 57217U 23091AV  26139.83680900  .00008532  00000+0  30382-3 0  9998
2 57217  97.5073 204.0415 0011117 188.2676 171.8382 15.29138431160048
SONATE-2                
1 59112U 24043Q   26139.87120132  .00029178  00000+0  41181-3 0  9990
2 59112  97.5515 288.5843 0005783 301.6628  58.4062 15.56528561123486
MESAT1                  
1 60209U 24125G   26139.39825110  .00035221  00000+0  43511-3 0  9990
2 60209  97.2326 356.2878 0008526 329.5896  30.4865 15.60024983105077
OOV-CUBE (TUBSAT-30)    
1 60240U 24128F   26139.50878655  .00001527  00000+0  12723-3 0  9996
2 60240  61.9945 325.5624 0048220 127.5162 233.0326 15.02610612101808
COLIBRI-S (RS67S)       
1 61746U 24199M   26139.79654747  .00016956  00000+0  34342-3 0  9994
2 61746  97.3026  13.4138 0009460  36.0364 324.1522 15.46436487133020
HORS 3 (RS81S)          
1 61753U 24199U   26139.88417174  .00028697  00000+0  46213-3 0  9998
2 61753  97.3011  15.2003 0007645  43.6711 316.5146 15.52889054133167
HORS 4 (RS82S)          
1 61754U 24199V   26139.79535032  .00036759  00000+0  51040-3 0  9995
2 61754  97.2962  16.1424 0006574  41.4896 318.6858 15.56917262133226
ARCTICSAT 1 (RS74S)     
1 61762U 24199AD  26139.77857373  .00251423  00000+0  92923-3 0  9999
2 61762  97.2888  21.7566 0002078 105.3363 254.8138 15.87537763133584
SIT-2086                
1 61764U 24199AF  26139.82799411  .00027306  00000+0  47051-3 0  9998
2 61764  97.2977  15.7155 0007352  25.3690 334.7921 15.51003232130031
HYPERVIEW 1G (RS66S)    
1 61772U 24199AP  26139.86668884  .00088797  00000+0  76626-3 0  9991
2 61772  97.2922  18.3027 0006197  43.6812 316.4939 15.68948165130220
ALTAIR (RS65S)          
1 61779U 24199AW  26139.85193311  .00009073  00000+0  25655-3 0  9991
2 61779  97.3059   9.3966 0014305  53.7599 306.4965 15.36449451132763
ASRTU-1 (AO-123)        
1 61781U 24199AY  26139.88135181  .00006025  00000+0  17792-3 0  9995
2 61781  97.3030   8.8112 0015469  55.4181 304.8519 15.35219431129585
SAMSAT-IONOSPHERE (RS7*)
1 61784U 24199BB  26139.89723617  .00035655  00000+0  53043-3 0  9996
2 61784  97.2983  15.1689 0009691  40.0891 320.1077 15.55016111133163
RTU MIREA 1 (RS51S)     
1 61785U 24199BC  26139.85048257  .00041535  00000+0  55534-3 0  9994
2 61785  97.2973  15.8202 0009360  38.2245 321.9673 15.57881903130053
TEVEL2-4                
1 63213U 25052D   26139.22054830  .00010800  00000+0  33580-3 0  9994
2 63213  97.3933  35.5841 0002432 158.4179 201.7167 15.33501761 65673
TEVEL2-5                
1 63214U 25052E   26139.69475722  .00012442  00000+0  38818-3 0  9996
2 63214  97.3932  36.0141 0002448 156.4351 203.7004 15.33357540 65743
TEVEL2-6                
1 63215U 25052F   26139.51061639  .00012484  00000+0  38998-3 0  9991
2 63215  97.3934  35.8146 0002523 158.6934 201.4413 15.33314552 65715
TEVEL2-1                
1 63217U 25052H   26139.46478593  .00012131  00000+0  38501-3 0  9997
2 63217  97.3909  35.4261 0001975 171.4829 188.6447 15.32818755 65692
TEVEL2-3                
1 63218U 25052J   26139.46040100  .00012064  00000+0  38231-3 0  9992
2 63218  97.3910  35.4402 0001994 170.9915 189.1364 15.32866874 65692
TEVEL2-2                
1 63219U 25052K   26139.66108219  .00012548  00000+0  39799-3 0  9998
2 63219  97.3908  35.6241 0001954 171.9496 188.1777 15.32830154 65727
